{"type": "FeatureCollection", "features": [ {"type": "Feature", "properties": {"norad_id": 43437, "name": "SENTINEL-3B", "group": "resource", "lat": 45.520843964816486, "lon": 51.86422282780015, "alt_km": 797.8804740805435, "timestamp": "2025-12-21T16:47:54.386535+00:00", "meta": {"OBJECT_NAME": "SENTINEL-3B", "OBJECT_ID": "2018-039A", "EPOCH": "2025-12-21T11:32:00.041856", "MEAN_MOTION": 14.2673719, "ECCENTRICITY": 0.0001622, "INCLINATION": 98.6256, "RA_OF_ASC_NODE": 60.5402, "ARG_OF_PERICENTER": 93.0561, "MEAN_ANOMALY": 267.0805, "EPHEMERIS_TYPE": 0, "CLASSIFICATION_TYPE": "U", "NORAD_CAT_ID": 43437, "ELEMENT_SET_NO": 999, "REV_AT_EPOCH": 39878, "BSTAR": 6.8744e-05, "MEAN_MOTION_DOT": 1.23e-06, "MEAN_MOTION_DDOT": 0}, "tle": {"line1": "1 43437U 18039A   25355.48055604  .00000123  00000+0  68744-4 0  9992", "line2": "2 43437  98.6256  60.5402 0001622  93.0561 267.0805 14.26737190398784"}}, "geometry": {"type": "Point", "coordinates": [51.86422282780015, 45.520843964816486]}}, {"type": "Feature", "properties": {"norad_id": 43461, "name": "GAOFEN-5 01", "group": "resource", "lat": 39.53871308110292, "lon": -48.21087110793448, "alt_km": 688.9603019018177, "timestamp": "2025-12-21T16:47:54.386546+00:00", "meta": {"OBJECT_NAME": "GAOFEN-5 01", "OBJECT_ID": "2018-043A", "EPOCH": "2025-12-21T11:40:57.438624", "MEAN_MOTION": 14.60418612, "ECCENTRICITY": 5.1e-05, "INCLINATION": 98.4339, "RA_OF_ASC_NODE": 318.6072, "ARG_OF_PERICENTER": 280.4248, "MEAN_ANOMALY": 79.6894, "EPHEMERIS_TYPE": 0, "CLASSIFICATION_TYPE": "U", "NORAD_CAT_ID": 43461, "ELEMENT_SET_NO": 999, "REV_AT_EPOCH": 40575, "BSTAR": 8.5208e-05, "MEAN_MOTION_DOT": 3.64e-06, "MEAN_MOTION_DDOT": 0}, "tle": {"line1": "1 43461U 18043A   25355.48677591  .00000364  00000+0  85208-4 0  9990", "line2": "2 43461  98.4339 318.6072 0000510 280.4248  79.6894 14.60418612405754"}}, "geometry": {"type": "Point", "coordinates": [-48.21087110793448, 39.53871308110292]}}, {"type": "Feature", "properties": {"norad_id": 43484, "name": "GAOFEN-6", "group": "resource", "lat": -15.673414497853086, "lon": -122.53874515404038, "alt_km": 653.319941115994, "timestamp": "2025-12-21T16:47:54.386556+00:00", "meta": {"OBJECT_NAME": "GAOFEN-6", "OBJECT_ID": "2018-048A", "EPOCH": "2025-12-21T12:39:45.963648", "MEAN_MOTION": 14.76579799, "ECCENTRICITY": 0.0012804, "INCLINATION": 97.8026, "RA_OF_ASC_NODE": 59.4997, "ARG_OF_PERICENTER": 37.6597, "MEAN_ANOMALY": 322.5507, "EPHEMERIS_TYPE": 0, "CLASSIFICATION_TYPE": "U", "NORAD_CAT_ID": 43484, "ELEMENT_SET_NO": 999, "REV_AT_EPOCH": 40717, "BSTAR": 6.6866e-05, "MEAN_MOTION_DOT": 4.18e-06, "MEAN_MOTION_DDOT": 0}, "tle": {"line1": "1 43484U 18048A   25355.52761532  .00000418  00000+0  66866-4 0  9993", "line2": "2 43484  97.8026  59.4997 0012804  37.6597 322.5507 14.76579799407179"}}, "geometry": {"type": "Point", "coordinates": [-122.53874515404038, -15.673414497853086]}}, {"type": "Feature", "properties": {"norad_id": 43585, "name": "GAOFEN-11 01", "group": "resource", "lat": -5.6393712705494226, "lon": -122.14982570240737, "alt_km": 421.8274980308961, "timestamp": "2025-12-21T16:47:54.386566+00:00", "meta": {"OBJECT_NAME": "GAOFEN-11 01", "OBJECT_ID": "2018-063A", "EPOCH": "2025-12-21T12:53:59.208576", "MEAN_MOTION": 15.49451083, "ECCENTRICITY": 0.0003879, "INCLINATION": 97.1552, "RA_OF_ASC_NODE": 58.3998, "ARG_OF_PERICENTER": 268.9533, "MEAN_ANOMALY": 91.1274, "EPHEMERIS_TYPE": 0, "CLASSIFICATION_TYPE": "U", "NORAD_CAT_ID": 43585, "ELEMENT_SET_NO": 999, "REV_AT_EPOCH": 41278, "BSTAR": 0.00024704, "MEAN_MOTION_DOT": 0.00013497, "MEAN_MOTION_DDOT": 0}, "tle": {"line1": "1 43585U 18063A   25355.53749084  .00013497  00000+0  24704-3 0  9996", "line2": "2 43585  97.1552  58.3998 0003879 268.9533  91.1274 15.49451083412787"}}, "geometry": {"type": "Point", "coordinates": [-122.14982570240737, -5.6393712705494226]}}, {"type": "Feature", "properties": {"norad_id": 43613, "name": "ICESAT-2", "group": "resource", "lat": -39.35085334966346, "lon": -115.19904330569989, "alt_km": 489.57643426292907, "timestamp": "2025-12-21T16:47:54.386576+00:00", "meta": {"OBJECT_NAME": "ICESAT-2", "OBJECT_ID": "2018-070A", "EPOCH": "2025-12-21T12:15:21.468960", "MEAN_MOTION": 15.2825061, "ECCENTRICITY": 0.000295, "INCLINATION": 92.0044, "RA_OF_ASC_NODE": 243.1043, "ARG_OF_PERICENTER": 120.3372, "MEAN_ANOMALY": 239.8169, "EPHEMERIS_TYPE": 0, "CLASSIFICATION_TYPE": "U", "NORAD_CAT_ID": 43613, "ELEMENT_SET_NO": 999, "REV_AT_EPOCH": 40532, "BSTAR": 0.00035145, "MEAN_MOTION_DOT": 9.672e-05, "MEAN_MOTION_DDOT": 0}, "tle": {"line1": "1 43613U 18070A   25355.51066515  .00009672  00000+0  35145-3 0  9996", "line2": "2 43613  92.0044 243.1043 0002950 120.3372 239.8169 15.28250610405321"}}, "geometry": {"type": "Point", "coordinates": [-115.19904330569989, -39.35085334966346]}}, {"type": "Feature", "properties": {"norad_id": 43719, "name": "HYSIS", "group": "resource", "lat": -60.812462414876435, "lon": 73.2339117345052, "alt_km": 640.9630361932232, "timestamp": "2025-12-21T16:47:54.386586+00:00", "meta": {"OBJECT_NAME": "HYSIS", "OBJECT_ID": "2018-096A", "EPOCH": "2025-12-21T12:12:19.708416", "MEAN_MOTION": 14.78666949, "ECCENTRICITY": 0.0001018, "INCLINATION": 98.0093, "RA_OF_ASC_NODE": 58.4439, "ARG_OF_PERICENTER": 50.9086, "MEAN_ANOMALY": 309.2215, "EPHEMERIS_TYPE": 0, "CLASSIFICATION_TYPE": "U", "NORAD_CAT_ID": 43719, "ELEMENT_SET_NO": 999, "REV_AT_EPOCH": 38116, "BSTAR": 0.00011751, "MEAN_MOTION_DOT": 8.09e-06, "MEAN_MOTION_DDOT": 0}, "tle": {"line1": "1 43719U 18096A   25355.50856144  .00000809  00000+0  11751-3 0  9995", "line2": "2 43719  98.0093  58.4439 0001018  50.9086 309.2215 14.78666949381167"}}, "geometry": {"type": "Point", "coordinates": [73.2339117345052, -60.812462414876435]}}, {"type": "Feature", "properties": {"norad_id": 43783, "name": "KAZSTSAT", "group": "resource", "lat": 58.28437871403456, "lon": -137.2718785776326, "alt_km": 567.3810131178143, "timestamp": "2025-12-21T16:47:54.386596+00:00", "meta": {"OBJECT_NAME": "KAZSTSAT", "OBJECT_ID": "2018-099AB", "EPOCH": "2025-12-21T01:50:44.888352", "MEAN_MOTION": 14.99364891, "ECCENTRICITY": 0.00060238, "INCLINATION": 97.4527, "RA_OF_ASC_NODE": 29.903, "ARG_OF_PERICENTER": 292.687, "MEAN_ANOMALY": 67.3717, "EPHEMERIS_TYPE": 0, "CLASSIFICATION_TYPE": "U", "NORAD_CAT_ID": 43783, "ELEMENT_SET_NO": 999, "REV_AT_EPOCH": 38461, "BSTAR": 1.8043656e-05, "MEAN_MOTION_DOT": 1.65e-06, "MEAN_MOTION_DDOT": 0}, "tle": {"line1": "1 43783U 18099AB  25355.07690843  .00000165  00000+0  18044-4 0  9991", "line2": "2 43783  97.4527  29.9030 0006023 292.6870  67.3717 14.99364891384616"}}, "geometry": {"type": "Point", "coordinates": [-137.2718785776326, 58.28437871403456]}}, {"type": "Feature", "properties": {"norad_id": 43831, "name": "SAUDISAT 5A", "group": "resource", "lat": -57.24902881004986, "lon": 67.26863957716272, "alt_km": 497.8358365108261, "timestamp": "2025-12-21T16:47:54.386606+00:00", "meta": {"OBJECT_NAME": "SAUDISAT 5A", "OBJECT_ID": "2018-102A", "EPOCH": "2025-12-21T12:19:48.362016", "MEAN_MOTION": 15.25755517, "ECCENTRICITY": 0.0011333, "INCLINATION": 97.334, "RA_OF_ASC_NODE": 55.5357, "ARG_OF_PERICENTER": 49.1682, "MEAN_ANOMALY": 311.0537, "EPHEMERIS_TYPE": 0, "CLASSIFICATION_TYPE": "U", "NORAD_CAT_ID": 43831, "ELEMENT_SET_NO": 999, "REV_AT_EPOCH": 38856, "BSTAR": 0.00019537, "MEAN_MOTION_DOT": 4.923e-05, "MEAN_MOTION_DDOT": 0}, "tle": {"line1": "1 43831U 18102A   25355.51375419  .00004923  00000+0  19537-3 0  9991", "line2": "2 43831  97.3340  55.5357 0011333  49.1682 311.0537 15.25755517388561"}}, "geometry": {"type": "Point", "coordinates": [67.26863957716272, -57.24902881004986]}}, {"type": "Feature", "properties": {"norad_id": 43833, "name": "SAUDISAT 5B", "group": "resource", "lat": 5.467769885028714, "lon": 57.765624854486326, "alt_km": 483.96070465568755, "timestamp": "2025-12-21T16:47:54.386620+00:00", "meta": {"OBJECT_NAME": "SAUDISAT 5B", "OBJECT_ID": "2018-102C", "EPOCH": "2025-12-21T12:03:12.462912", "MEAN_MOTION": 15.26103674, "ECCENTRICITY": 0.0012053, "INCLINATION": 97.3436, "RA_OF_ASC_NODE": 58.2787, "ARG_OF_PERICENTER": 51.2563, "MEAN_ANOMALY": 308.9751, "EPHEMERIS_TYPE": 0, "CLASSIFICATION_TYPE": "U", "NORAD_CAT_ID": 43833, "ELEMENT_SET_NO": 999, "REV_AT_EPOCH": 38867, "BSTAR": 0.0001771, "MEAN_MOTION_DOT": 4.504e-05, "MEAN_MOTION_DDOT": 0}, "tle": {"line1": "1 43833U 18102C   25355.50222758  .00004504  00000+0  17710-3 0  9995", "line2": "2 43833  97.3436  58.2787 0012053  51.2563 308.9751 15.26103674388675"}}, "geometry": {"type": "Point", "coordinates": [57.765624854486326, 5.467769885028714]}}, {"type": "Feature", "properties": {"norad_id": 44622, "name": "GAOFEN-10R", "group": "resource", "lat": -3.818719872596752, "lon": -56.218543641301125, "alt_km": 619.1363152202166, "timestamp": "2025-12-21T16:47:54.386631+00:00", "meta": {"OBJECT_NAME": "GAOFEN-10R", "OBJECT_ID": "2019-066A", "EPOCH": "2025-12-21T11:57:25.910784", "MEAN_MOTION": 14.82819365, "ECCENTRICITY": 0.0007283, "INCLINATION": 98.029, "RA_OF_ASC_NODE": 303.0391, "ARG_OF_PERICENTER": 16.4024, "MEAN_ANOMALY": 343.7423, "EPHEMERIS_TYPE": 0, "CLASSIFICATION_TYPE": "U", "NORAD_CAT_ID": 44622, "ELEMENT_SET_NO": 999, "REV_AT_EPOCH": 33604, "BSTAR": 0.00016069, "MEAN_MOTION_DOT": 1.246e-05, "MEAN_MOTION_DDOT": 0}, "tle": {"line1": "1 44622U 19066A   25355.49821656  .00001246  00000+0  16069-3 0  9998", "line2": "2 44622  98.0290 303.0391 0007283  16.4024 343.7423 14.82819365336043"}}, "geometry": {"type": "Point", "coordinates": [-56.218543641301125, -3.818719872596752]}}]}